BEIDOU 3 (C01)          
1 36287U 10001A   20266.07615774 -.00000297  00000-0  00000+0 0  9999
2 36287   1.5246  32.4328 0005547 122.3283  14.5389  1.00270090 39179
BEIDOU 5 (C06)          
1 36828U 10036A   20264.90250472 -.00000156  00000-0  10000-3 0  9997
2 36828  54.1682 182.0999 0100911 235.0484  26.8490  1.00287135 37209
BEIDOU 6 (C04)          
1 37210U 10057A   20265.84781106 -.00000129  00000-0  00000-0 0  9999
2 37210   0.9745  55.7108 0005949 127.7019 282.9046  1.00272569 36282
BEIDOU 7 (C07)          
1 37256U 10068A   20266.12739844 -.00000203  00000-0  00000+0 0  9997
2 37256  51.3194 297.1872 0082527 214.6432  14.8328  1.00281565 35798
BEIDOU 8 (C08)          
1 37384U 11013A   20265.86822838 -.00000179  00000-0  10000-3 0  9993
2 37384  59.4058  60.6177 0050997 200.9903 170.9959  1.00279429 34683
BEIDOU 9 (C09)          
1 37763U 11038A   20265.91354866 -.00000101  00000-0  10000-3 0  9993
2 37763  54.4503 184.4899 0073378 225.0984  16.6255  1.00274424 33645
BEIDOU 10 (C10)         
1 37948U 11073A   20265.54815567 -.00000147  00000-0  10000-3 0  9996
2 37948  51.4158 296.7955 0071829 215.4445 142.1324  1.00274369 32398
BEIDOU 11 (C05)         
1 38091U 12008A   20265.97804258  .00000041  00000-0  00000-0 0  9995
2 38091   1.6764  69.0893 0002355 216.8838 126.0918  1.00269778 31475
BEIDOU 12 (C11)         
1 38250U 12018A   20265.55945392 -.00000092  00000-0  10000-3 0  9993
2 38250  56.7467  14.4956 0022333 238.6079 133.8571  1.86234429 57281
BEIDOU 13 (C12)         
1 38251U 12018B   20265.48977681 -.00000093  00000-0  00000-0 0  9999
2 38251  56.6733  13.8656 0013530 237.6710 133.1192  1.86232769 57284
BEIDOU 15 (C14)         
1 38775U 12050B   20265.52855115  .00000002  00000-0  00000-0 0  9997
2 38775  55.0931 133.0544 0014238 323.3406 270.1712  1.86232470 54657
BEIDOU 16 (C02)         
1 38953U 12059A   20265.92950031 -.00000193  00000-0  00000-0 0  9993
2 38953   1.3269  84.2045 0006302 259.7917  75.9481  1.00272585 29044
BEIDOU 17 (C31)         
1 40549U 15019A   20265.87190130 -.00000180  00000-0  00000-0 0  9992
2 40549  52.9121 320.0920 0040681 191.7318 259.9708  1.00266238 20087
BEIDOU 18 (C57)         
1 40748U 15037A   20266.03530256 -.00000097  00000-0  00000+0 0  9995
2 40748  55.9380  13.0947 0001555  33.5694 252.8274  1.86232180 35116
BEIDOU 19 (C58)         
1 40749U 15037B   20265.53227076 -.00000094  00000-0  00000-0 0  9991
2 40749  55.9415  13.0989 0002763 291.5004 154.7137  1.86232325 35103
BEIDOU 20 (C18)         
1 40938U 15053A   20265.98784063 -.00000108  00000-0  00000-0 0  9998
2 40938  52.4746 283.1245 0048288 192.1856 334.3684  1.00295646 18363
BEIDOU IGSO-6 (C13)     
1 41434U 16021A   20265.93699795 -.00000142  00000-0  00000-0 0  9996
2 41434  57.1795  59.4849 0040995 203.1889 171.2606  1.00280835 16499
BEIDOU-2 G7 (C03)       
1 41586U 16037A   20265.88789355 -.00000371  00000-0  00000-0 0  9991
2 41586   1.6869  66.8567 0007685   4.2015   0.3237  1.00268723 15798
BEIDOU-3 M1 (C19)       
1 43001U 17069A   20266.16576725 -.00000006  00000-0  00000+0 0  9992
2 43001  55.2474 132.9487 0008652 294.8386 162.5935  1.86231993 19601
BEIDOU-3 M2 (C20)       
1 43002U 17069B   20265.83425213 -.00000002  00000-0  00000+0 0  9997
2 43002  55.2470 132.9948 0008094 319.3017 319.6363  1.86231589 19582
BEIDOU-3 M3 (C27)       
1 43107U 18003A   20265.11583704 -.00000093  00000-0  00000-0 0  9994
2 43107  55.3758  14.3283 0003961  55.6679 267.4803  1.86232726 18330
BEIDOU-3 M4 (C28)       
1 43108U 18003B   20265.79069481 -.00000096  00000-0  00000+0 0  9992
2 43108  55.3677  14.2965 0003684 223.1748 237.5902  1.86232813 18355
BEIDOU-3 M5 (C21)       
1 43207U 18018A   20265.55112113  .00000002  00000-0  00000-0 0  9990
2 43207  55.2058 133.1042 0005888 350.1137   9.9668  1.86231629 17730
BEIDOU-3 M6 (C22)       
1 43208U 18018B   20265.08094412  .00000008  00000-0  00000-0 0  9996
2 43208  55.2051 133.1250 0006638 310.2541  49.7825  1.86231532 17724
BEIDOU-3 M7 (C29)       
1 43245U 18029A   20265.69827443 -.00000097  00000-0  00000-0 0  9993
2 43245  55.3195  12.1130 0000920 180.3697  83.3312  1.86232881 16883
BEIDOU-3 M8 (C30)       
1 43246U 18029B   20265.63383559 -.00000097  00000-0  10000-3 0  9997
2 43246  55.3155  12.1467 0002992 340.0339 286.4106  1.86233166 16875
BEIDOU IGSO-7 (C16)     
1 43539U 18057A   20265.91468242 -.00000147  00000-0  00000-0 0  9999
2 43539  55.0495 181.3822 0032222 217.7974  43.6926  1.00296282  8151
BEIDOU-3 M9 (C23)       
1 43581U 18062A   20265.73748241  .00000037  00000-0  00000-0 0  9999
2 43581  54.5237 253.8252 0006537 264.2478 281.2451  1.86231933 14622
BEIDOU-3 M10 (C24)      
1 43582U 18062B   20265.62909278  .00000037  00000-0  00000-0 0  9997
2 43582  54.5225 253.8182 0005338 316.9949 246.8387  1.86232276 14624
BEIDOU-3 M11 (C25)      
1 43602U 18067A   20265.56751709  .00000038  00000-0  00000-0 0  9993
2 43602  54.5940 252.3814 0006511 341.8101 223.5468  1.86231659 14118
BEIDOU-3 M12 (C26)      
1 43603U 18067B   20266.07755579  .00000040  00000-0  00000+0 0  9992
2 43603  54.5917 252.3311 0004348 322.0323 135.8025  1.86231623 14146
BEIDOU-3 M13 (C32)      
1 43622U 18072A   20265.77800991 -.00000001  00000-0  00000-0 0  9993
2 43622  55.1707 132.6761 0005430 294.3768 353.0660  1.86232060 13646
BEIDOU-3 M14 (C33)      
1 43623U 18072B   20265.48543304  .00000002  00000-0  00000-0 0  9994
2 43623  55.1726 132.6770 0004594 327.1976 214.3120  1.86232120 13641
BEIDOU-3 M15 (C34)      
1 43647U 18078A   20265.76720981 -.00000097  00000-0  10000-3 0  9994
2 43647  55.2127  12.3230 0005201 348.5269 277.0473  1.86233061 13165
BEIDOU-3 M16 (C35)      
1 43648U 18078B   20265.90022597 -.00000098  00000-0  10000-3 0  9990
2 43648  55.2069  12.3280 0003257   3.4029 260.2714  1.86232485 13178
BEIDOU-3 G1 (C59)       
1 43683U 18085A   20265.84379822 -.00000298  00000-0  00000-0 0  9994
2 43683   1.5667 250.9020 0004769 351.3883 202.5936  1.00267096  7067
BEIDOU-3 M17 (C36)      
1 43706U 18093A   20265.28256931  .00000036  00000-0  00000-0 0  9991
2 43706  54.6037 253.6795 0012139 264.6645 200.8008  1.86231905 12515
BEIDOU-3 M18 (C37)      
1 43707U 18093B   20265.78552598  .00000038  00000-0  00000+0 0  9996
2 43707  54.6043 253.6532 0010556 282.8615 250.4192  1.86232155 12526
BEIDOU-3 IGSO-1 (C38)   
1 44204U 19023A   20265.84910382 -.00000199  00000-0  10000-3 0  9993
2 44204  55.6355  59.8525 0018745 179.0873 180.9529  1.00265177  5366
BEIDOU-2 G8             
1 44231U 19027A   20265.91646809 -.00000264  00000-0  00000+0 0  9993
2 44231   0.7727 300.6230 0007722 265.3143 269.6850  1.00275922  5071
BEIDOU-3 IGSO-2 (C39)   
1 44337U 19035A   20265.72382314 -.00000135  00000-0  00000+0 0  9993
2 44337  55.0749 177.4285 0014089 185.4627   5.8256  1.00261913  4690
BEIDOU-3 M23 (C45)      
1 44542U 19061A   20265.13720384  .00000035  00000-0  10000-3 0  9991
2 44542  54.8278 253.7031 0009505 309.7374 102.7070  1.86231458  6773
BEIDOU-3 M24 (C46)      
1 44543U 19061B   20265.49374084  .00000037  00000-0  10000-3 0  9995
2 44543  54.8258 253.6608 0007204 295.0124 266.9846  1.86231728  6780
BEIDOU-3 IGSO-3         
1 44709U 19073A   20265.54963868 -.00000151  00000-0  10000-3 0  9990
2 44709  58.2522 302.9200 0025349 191.8636 169.0064  1.00256850  3458
BEIDOU-3 M21            
1 44793U 19078A   20265.39103164 -.00000096  00000-0  10000-3 0  9994
2 44793  55.0604  12.4348 0005118 354.2915 333.8239  1.86232105  5638
BEIDOU-3 M22            
1 44794U 19078B   20265.57561626 -.00000097  00000-0  10000-3 0  9997
2 44794  55.0330  12.4336 0003219 344.9919  17.3457  1.86232542  5644
BEIDOU-3 M19            
1 44864U 19090A   20265.71275039 -.00000001  00000-0  00000-0 0  9996
2 44864  55.1060 132.9228 0014319 265.5467  23.4178  1.86232072  5220
BEIDOU-3 M20            
1 44865U 19090B   20266.11241198 -.00000006  00000-0  10000-3 0  9990
2 44865  55.1083 132.9384 0013395 282.6359   4.2210  1.86232058  5219
BEIDOU-3 G2             
1 45344U 20017A   20265.87881118 -.00000158  00000-0  00000-0 0  9992
2 45344   2.8129 330.0277 0002312 189.7559 237.8031  1.00270570  2264
BEIDOU-3 G3             
1 45807U 20040A   20265.92731726 -.00000372  00000-0  00000-0 0  9995
2 45807   2.9038 298.6385 0007130 349.1012 157.7928  1.00266679  1074